ONEWEB-0205             
1 48226U 21031S   25299.15168617 -.00000016  00000+0 -77807-4 0  9992
2 48226  87.9019 336.3169 0001973  90.9783 269.1573 13.14504291217525
ONEWEB-0206             
1 48227U 21031T   25299.12471609 -.00000098  00000+0 -29804-3 0  9991
2 48227  87.9029 336.3083 0001773 104.6780 255.4546 13.14504660217472
ONEWEB-0182             
1 48228U 21031U   25299.11997867 -.00000080  00000+0 -25075-3 0  9997
2 48228  87.9011 336.3471 0001672  89.7936 270.3385 13.14503394217682
ONEWEB-0186             
1 48229U 21031V   25299.13107850 -.00000249  00000+0 -70606-3 0  9992
2 48229  87.9026 336.3136 0001918  92.9505 267.1844 13.14502678217631
ONEWEB-0181             
1 48230U 21031W   25299.10887537  .00000137  00000+0  33529-3 0  9995
2 48230  87.9010 336.3806 0002021  94.9894 265.1467 13.14503814217484
ONEWEB-0188             
1 48231U 21031X   25299.14691687 -.00000183  00000+0 -52727-3 0  9993
2 48231  87.9011 336.3684 0001836  94.6050 265.5289 13.14504735217393
ONEWEB-0220             
1 48232U 21031Y   25299.11045154  .00000095  00000+0  22179-3 0  9991
2 48232  87.9026 336.3180 0001930  88.3485 271.7866 13.14501631217659
ONEWEB-0165             
1 48233U 21031Z   25299.13900389 -.00000187  00000+0 -53830-3 0  9996
2 48233  87.9006 336.3458 0001995  92.5806 267.5552 13.14503167217618
